{
  "norad_id": 51464,
  "name": "STARLINK-3189",
  "history": [
    {
      "epoch": "2026-03-28T16:53:03.393600Z",
      "apogee_km": 540.7621680992306,
      "perigee_km": 538.8012148669441,
      "latitude_deg": -2.495796355449951e-05,
      "longitude_deg": 114.37999301862519,
      "height_km": 540.8002557586125,
      "semi_major_axis_km": 6917.918691483087,
      "eccentricity": 0.00014173,
      "inclination_deg": 53.2189,
      "raan_deg": 193.7643,
      "arg_perigee_deg": 97.1929,
      "mean_anomaly_deg": 262.9224,
      "mean_motion_rev_day": 15.08827469
    }
  ]
}